{
  "norad_id": 64145,
  "name": "STARLINK-34186",
  "history": [
    {
      "epoch": "2026-03-28T17:29:11.860800Z",
      "apogee_km": 484.16631135715124,
      "perigee_km": 481.7394066522247,
      "latitude_deg": 3.0155600858278763e-05,
      "longitude_deg": -117.97017399962675,
      "height_km": 482.9547295069904,
      "semi_major_axis_km": 6861.089859004687,
      "eccentricity": 0.00017686,
      "inclination_deg": 43.0052,
      "raan_deg": 330.4741,
      "arg_perigee_deg": 259.3453,
      "mean_anomaly_deg": 100.72,
      "mean_motion_rev_day": 15.2761214
    },
    {
      "epoch": "2026-03-29T01:19:58.299168Z",
      "apogee_km": 484.2036630124758,
      "perigee_km": 481.6184201104152,
      "latitude_deg": 3.2246455568973248e-06,
      "longitude_deg": 122.16907067331408,
      "height_km": 482.64099645683393,
      "semi_major_axis_km": 6861.048041561445,
      "eccentricity": 0.0001884,
      "inclination_deg": 43.0058,
      "raan_deg": 328.6291,
      "arg_perigee_deg": 272.1183,
      "mean_anomaly_deg": 87.9453,
      "mean_motion_rev_day": 15.27626106
    },
    {
      "epoch": "2026-03-30T00:52:19.163424Z",
      "apogee_km": 484.0995769426836,
      "perigee_km": 481.91786982556187,
      "latitude_deg": 7.102188308012221e-06,
      "longitude_deg": 122.5770232547916,
      "height_km": 483.0492137218661,
      "semi_major_axis_km": 6861.145723384122,
      "eccentricity": 0.00015899,
      "inclination_deg": 43.0027,
      "raan_deg": 323.0907,
      "arg_perigee_deg": 256.0266,
      "mean_anomaly_deg": 104.0409,
      "mean_motion_rev_day": 15.27593483
    },
    {
      "epoch": "2026-03-30T08:43:07.012704Z",
      "apogee_km": 483.2713059201351,
      "perigee_km": 482.8363064230234,
      "latitude_deg": -3.618877153689754e-05,
      "longitude_deg": 2.7108560324760687,
      "height_km": 482.625780084113,
      "semi_major_axis_km": 6861.1908061715785,
      "eccentricity": 3.17e-05,
      "inclination_deg": 42.9973,
      "raan_deg": 321.2462,
      "arg_perigee_deg": 21.0024,
      "mean_anomaly_deg": 339.084,
      "mean_motion_rev_day": 15.27578427
    },
    {
      "epoch": "2026-03-31T08:15:28.754784Z",
      "apogee_km": 484.03456245296456,
      "perigee_km": 482.0836499521265,
      "latitude_deg": -5.745384344783988e-06,
      "longitude_deg": 3.113570030769988,
      "height_km": 482.52527136257874,
      "semi_major_axis_km": 6861.196106202546,
      "eccentricity": 0.00014217,
      "inclination_deg": 42.9967,
      "raan_deg": 315.7062,
      "arg_perigee_deg": 71.6299,
      "mean_anomaly_deg": 288.4707,
      "mean_motion_rev_day": 15.27576657
    },
    {
      "epoch": "2026-03-31T23:57:00.045216Z",
      "apogee_km": 485.09582442592364,
      "perigee_km": 480.7697826933818,
      "latitude_deg": 3.873396591651849e-05,
      "longitude_deg": 123.39599300406354,
      "height_km": 482.7143232047545,
      "semi_major_axis_km": 6861.069803559652,
      "eccentricity": 0.00031526,
      "inclination_deg": 43.0054,
      "raan_deg": 312.0134,
      "arg_perigee_deg": 269.921,
      "mean_anomaly_deg": 90.1281,
      "mean_motion_rev_day": 15.27618838
    },
    {
      "epoch": "2026-04-02T15:10:54.789312Z",
      "apogee_km": 483.8676792628894,
      "perigee_km": 481.93368996035133,
      "latitude_deg": 1.641219265056213e-06,
      "longitude_deg": -115.92724105547781,
      "height_km": 482.95483590845896,
      "semi_major_axis_km": 6861.03768461162,
      "eccentricity": 0.00014094,
      "inclination_deg": 43.0018,
      "raan_deg": 302.7795,
      "arg_perigee_deg": 253.3335,
      "mean_anomaly_deg": 106.7362,
      "mean_motion_rev_day": 15.27629565
    },
    {
      "epoch": "2026-04-02T21:27:31.690656Z",
      "apogee_km": 485.89004891540117,
      "perigee_km": 479.9793728579061,
      "latitude_deg": -4.130789218678237e-05,
      "longitude_deg": 148.1854739146645,
      "height_km": 483.1492278365948,
      "semi_major_axis_km": 6861.071710886653,
      "eccentricity": 0.00043074,
      "inclination_deg": 43.0085,
      "raan_deg": 301.3038,
      "arg_perigee_deg": 261.5334,
      "mean_anomaly_deg": 98.5029,
      "mean_motion_rev_day": 15.27618201
    },
    {
      "epoch": "2026-04-03T13:09:07.561152Z",
      "apogee_km": 483.3070258857788,
      "perigee_km": 482.68719103042076,
      "latitude_deg": 1.4267577725733022e-05,
      "longitude_deg": -91.55032801846822,
      "height_km": 482.4914077152864,
      "semi_major_axis_km": 6861.1341084581,
      "eccentricity": 4.517e-05,
      "inclination_deg": 42.9993,
      "raan_deg": 297.6119,
      "arg_perigee_deg": 335.1657,
      "mean_anomaly_deg": 24.9173,
      "mean_motion_rev_day": 15.27597362
    },
    {
      "epoch": "2026-04-04T14:15:37.609920Z",
      "apogee_km": 483.6395673075058,
      "perigee_km": 482.3236047627033,
      "latitude_deg": -4.7750540726292154e-05,
      "longitude_deg": -115.11976112086118,
      "height_km": 483.09878444604897,
      "semi_major_axis_km": 6861.118586035104,
      "eccentricity": 9.59e-05,
      "inclination_deg": 43.0006,
      "raan_deg": 291.6989,
      "arg_perigee_deg": 238.7872,
      "mean_anomaly_deg": 121.2885,
      "mean_motion_rev_day": 15.27602546
    },
    {
      "epoch": "2026-04-05T13:47:58.991712Z",
      "apogee_km": 483.63829559082205,
      "perigee_km": 482.5638257105247,
      "latitude_deg": 2.7979575971596393e-05,
      "longitude_deg": -114.71339615822413,
      "height_km": 483.08030434301685,
      "semi_major_axis_km": 6861.238060650673,
      "eccentricity": 7.83e-05,
      "inclination_deg": 43.0029,
      "raan_deg": 286.161,
      "arg_perigee_deg": 247.8173,
      "mean_anomaly_deg": 112.2596,
      "mean_motion_rev_day": 15.27562646
    },
    {
      "epoch": "2026-04-05T13:47:58.992576Z",
      "apogee_km": 483.6382269784417,
      "perigee_km": 482.56389432290507,
      "latitude_deg": 2.725191864011029e-05,
      "longitude_deg": -114.7134005440065,
      "height_km": 483.0802784411622,
      "semi_major_axis_km": 6861.238060650673,
      "eccentricity": 7.829e-05,
      "inclination_deg": 43.0029,
      "raan_deg": 286.161,
      "arg_perigee_deg": 247.8173,
      "mean_anomaly_deg": 112.2596,
      "mean_motion_rev_day": 15.27562646
    },
    {
      "epoch": "2026-04-05T21:38:46.737312Z",
      "apogee_km": 484.86491634886715,
      "perigee_km": 481.49065896259435,
      "latitude_deg": -2.8399246111767916e-06,
      "longitude_deg": 125.41988214561772,
      "height_km": 483.104099396922,
      "semi_major_axis_km": 6861.3147876557305,
      "eccentricity": 0.00024589,
      "inclination_deg": 43.0074,
      "raan_deg": 284.3155,
      "arg_perigee_deg": 264.9671,
      "mean_anomaly_deg": 95.09,
      "mean_motion_rev_day": 15.27537023
    },
    {
      "epoch": "2026-04-07T12:52:41.386368Z",
      "apogee_km": 483.3011017873632,
      "perigee_km": 482.75632522971046,
      "latitude_deg": -2.6543933496713905e-05,
      "longitude_deg": -113.90084646221965,
      "height_km": 482.9607110486035,
      "semi_major_axis_km": 6861.165713508536,
      "eccentricity": 3.97e-05,
      "inclination_deg": 43.0056,
      "raan_deg": 275.0837,
      "arg_perigee_deg": 235.1477,
      "mean_anomaly_deg": 124.9337,
      "mean_motion_rev_day": 15.27586807
    },
    {
      "epoch": "2026-04-07T19:09:18.768960Z",
      "apogee_km": 483.6699790869716,
      "perigee_km": 482.32382461542875,
      "latitude_deg": 2.1751880063363465e-05,
      "longitude_deg": 150.21125415197747,
      "height_km": 482.87878215971193,
      "semi_major_axis_km": 6861.1339018512,
      "eccentricity": 9.81e-05,
      "inclination_deg": 43.0064,
      "raan_deg": 273.6093,
      "arg_perigee_deg": 261.0378,
      "mean_anomaly_deg": 99.0363,
      "mean_motion_rev_day": 15.27597431
    },
    {
      "epoch": "2026-04-08T10:50:52.120896Z",
      "apogee_km": 483.81418235678575,
      "perigee_km": 482.13485670126556,
      "latitude_deg": -3.1620311826770264e-06,
      "longitude_deg": -89.51731288908218,
      "height_km": 483.00555148026143,
      "semi_major_axis_km": 6861.111519529025,
      "eccentricity": 0.00012238,
      "inclination_deg": 43.0028,
      "raan_deg": 269.9142,
      "arg_perigee_deg": 252.3739,
      "mean_anomaly_deg": 107.6979,
      "mean_motion_rev_day": 15.27604906
    },
    {
      "epoch": "2026-04-09T18:13:59.695680Z",
      "apogee_km": 483.1842295734559,
      "perigee_km": 482.8274501457836,
      "latitude_deg": 4.976318268261692e-05,
      "longitude_deg": 151.02722393432285,
      "height_km": 482.8299589883375,
      "semi_major_axis_km": 6861.142839859619,
      "eccentricity": 2.6e-05,
      "inclination_deg": 43.0007,
      "raan_deg": 262.5292,
      "arg_perigee_deg": 105.912,
      "mean_anomaly_deg": 254.1761,
      "mean_motion_rev_day": 15.27594446
    },
    {
      "epoch": "2026-04-10T11:29:42.900000Z",
      "apogee_km": 483.60485271861944,
      "perigee_km": 482.4562932668996,
      "latitude_deg": 9.313149901972041e-06,
      "longitude_deg": -112.67366424246173,
      "height_km": 482.71658716576593,
      "semi_major_axis_km": 6861.167572992759,
      "eccentricity": 8.37e-05,
      "inclination_deg": 43.0004,
      "raan_deg": 258.4673,
      "arg_perigee_deg": 279.0413,
      "mean_anomaly_deg": 81.0344,
      "mean_motion_rev_day": 15.27586186
    },
    {
      "epoch": "2026-04-11T17:18:41.228064Z",
      "apogee_km": 483.828636255078,
      "perigee_km": 482.27526307687367,
      "latitude_deg": -2.8621978382988777e-05,
      "longitude_deg": 151.84365142286154,
      "height_km": 482.75823690810444,
      "semi_major_axis_km": 6861.188949665976,
      "eccentricity": 0.0001132,
      "inclination_deg": 43.0013,
      "raan_deg": 251.4522,
      "arg_perigee_deg": 275.1962,
      "mean_anomaly_deg": 84.876,
      "mean_motion_rev_day": 15.27579047
    }
  ]
}